IRIDIUM 7               
1 24793U 97020B   25099.04870163  .00000832  00000+0  28056-3 0  9993
2 24793  86.4021 205.8451 0002075  88.1272 272.0162 14.35873615462190
IRIDIUM 5               
1 24795U 97020D   25098.78739069  .00010132  00000+0  84732-3 0  9991
2 24795  86.3852 115.7318 0111783  28.8248 331.9093 14.93540971475108
IRIDIUM 4               
1 24796U 97020E   25098.72740225  .00000761  00000+0  25130-3 0  9996
2 24796  86.4021 202.9058 0002237  92.6788 267.4665 14.36781038462493
IRIDIUM 914             
1 24836U 97030A   25099.06315373  .00001047  00000+0  32129-3 0  9996
2 24836  86.3988 211.5684 0003780  91.8588 268.3044 14.40792681459277
IRIDIUM 16              
1 24841U 97030F   25099.12820175  .00001030  00000+0  33008-3 0  9999
2 24841  86.4038 234.2640 0000721   2.1223 357.9978 14.38634602457338
IRIDIUM 911             
1 24842U 97030G   25099.13056944  .00001387  00000+0  37163-3 0  9997
2 24842  86.4466 233.1050 0013083 335.7253  24.3332 14.47530810465075
IRIDIUM 17              
1 24870U 97034B   25098.86396379  .00001032  00000+0  33661-3 0  9996
2 24870  86.3907 263.9075 0001036 142.8548 217.2722 14.37740768453620
IRIDIUM 920             
1 24871U 97034C   25098.87658185  .00001040  00000+0  31472-3 0  9991
2 24871  86.3958 243.2726 0009976 318.0853  41.9582 14.41448821456593
